SL-3 R/B                
1 19046U 88032B   26071.23427417  .00006311  00000+0  29444-3 0  9993
2 19046  97.5195  54.4764 0024622 222.0952 137.8392 15.19942924 52495
SL-16 R/B               
1 19120U 88039B   26071.30557510  .00000114  00000+0  76770-4 0  9999
2 19120  71.0137  63.0157 0022932 330.5781  29.4051 14.19615866958753
COSMOS 1953             
1 19210U 88050A   26071.30963646  .00008844  00000+0  31630-3 0  9996
2 19210  82.5102 155.6127 0012542 114.4018 245.8532 15.28576123 38182
SL-8 R/B                
1 19257U 88053B   26071.30163498  .00000298  00000+0  10515-3 0  9991
2 19257  74.0456 107.6515 0021469 286.5687 151.0905 14.38917564976978
COSMOS 1975             
1 19573U 88093A   26071.14769814  .00006913  00000+0  25059-3 0  9991
2 19573  82.5182 115.2177 0012400 155.1171 205.0669 15.28107769 19784
SL-14 R/B               
1 19574U 88093B   26071.29932079  .00000749  00000+0  83359-4 0  9992
2 19574  82.5310  39.5938 0021581  33.2673  83.1539 14.85660399  1400
SL-16 R/B               
1 19650U 88102B   26071.30651569  .00000282  00000+0  16673-3 0  9998
2 19650  70.9999 145.9917 0014137 357.5135   2.5915 14.16153853927262
INTERCOSMOS 24          
1 20261U 89080A   26071.10599846  .00000766  00000+0  22806-3 0  9993
2 20261  82.6022 102.8305 1186680 287.2065  60.2687 12.59561642667102
SL-14 R/B               
1 20262U 89080C   26071.27650643  .00000660  00000+0  19364-3 0  9993
2 20262  82.5974 171.5263 1230648 178.8389 181.6078 12.50497375660479
DELTA 1 R/B             
1 20323U 89089B   26071.17294727  .00000410  00000+0  10965-3 0  9997
2 20323  97.0704 278.2168 0070568 114.2803 246.5788 14.50665274896090
ARIANE 40 R/B           
1 20443U 90005H   26071.17622715  .00000324  00000+0  11667-3 0  9996
2 20443  98.3078 131.7635 0010005 190.9929 169.1042 14.39872407893166
DELTA 2 R/B(1)          
1 20453U 90008B   26071.32570836  .00063321  00000+0  73192-3 0  9990
2 20453  35.6034 157.5488 0084577 283.0537  76.0768 15.56355952926540
