CCSDS_OMM_VERS = 2.0
CREATION_DATE  = 
ORIGINATOR     = 

OBJECT_NAME    = SL-3 R/B
OBJECT_ID      = 1988-032B
CENTER_NAME    = EARTH
REF_FRAME      = TEME
TIME_SYSTEM    = UTC
MEAN_ELEMENT_THEORY = SGP/SGP4

EPOCH          = 2026-03-12T05:37:21.288288
MEAN_MOTION    = 15.19942924
ECCENTRICITY   = .00246223
INCLINATION    = 97.5195
RA_OF_ASC_NODE = 54.4764
ARG_OF_PERICENTER = 222.0952
MEAN_ANOMALY   = 137.8392

EPHEMERIS_TYPE = 0
CLASSIFICATION_TYPE = U
NORAD_CAT_ID   = 19046
ELEMENT_SET_NO = 999
REV_AT_EPOCH   = 5249
BSTAR          = .2944432E-3
MEAN_MOTION_DOT = .6311E-4
MEAN_MOTION_DDOT = 0

CCSDS_OMM_VERS = 2.0
CREATION_DATE  = 
ORIGINATOR     = 

OBJECT_NAME    = SL-16 R/B
OBJECT_ID      = 1988-039B
CENTER_NAME    = EARTH
REF_FRAME      = TEME
TIME_SYSTEM    = UTC
MEAN_ELEMENT_THEORY = SGP/SGP4

EPOCH          = 2026-03-12T07:20:01.688640
MEAN_MOTION    = 14.19615866
ECCENTRICITY   = .00229321
INCLINATION    = 71.0137
RA_OF_ASC_NODE = 63.0157
ARG_OF_PERICENTER = 330.5781
MEAN_ANOMALY   = 29.4051

EPHEMERIS_TYPE = 0
CLASSIFICATION_TYPE = U
NORAD_CAT_ID   = 19120
ELEMENT_SET_NO = 999
REV_AT_EPOCH   = 95875
BSTAR          = .7676968E-4
MEAN_MOTION_DOT = .114E-5
MEAN_MOTION_DDOT = 0

CCSDS_OMM_VERS = 2.0
CREATION_DATE  = 
ORIGINATOR     = 

OBJECT_NAME    = COSMOS 1953
OBJECT_ID      = 1988-050A
CENTER_NAME    = EARTH
REF_FRAME      = TEME
TIME_SYSTEM    = UTC
MEAN_ELEMENT_THEORY = SGP/SGP4

EPOCH          = 2026-03-12T07:25:52.590144
MEAN_MOTION    = 15.28576123
ECCENTRICITY   = .00125425
INCLINATION    = 82.5102
RA_OF_ASC_NODE = 155.6127
ARG_OF_PERICENTER = 114.4018
MEAN_ANOMALY   = 245.8532

EPHEMERIS_TYPE = 0
CLASSIFICATION_TYPE = U
NORAD_CAT_ID   = 19210
ELEMENT_SET_NO = 999
REV_AT_EPOCH   = 3818
BSTAR          = .3162974E-3
MEAN_MOTION_DOT = .8844E-4
MEAN_MOTION_DDOT = 0

CCSDS_OMM_VERS = 2.0
CREATION_DATE  = 
ORIGINATOR     = 

OBJECT_NAME    = SL-8 R/B
OBJECT_ID      = 1988-053B
CENTER_NAME    = EARTH
REF_FRAME      = TEME
TIME_SYSTEM    = UTC
MEAN_ELEMENT_THEORY = SGP/SGP4

EPOCH          = 2026-03-12T07:14:21.262272
MEAN_MOTION    = 14.38917564
ECCENTRICITY   = .00214698
INCLINATION    = 74.0456
RA_OF_ASC_NODE = 107.6515
ARG_OF_PERICENTER = 286.5687
MEAN_ANOMALY   = 151.0905

EPHEMERIS_TYPE = 0
CLASSIFICATION_TYPE = U
NORAD_CAT_ID   = 19257
ELEMENT_SET_NO = 999
REV_AT_EPOCH   = 97697
BSTAR          = .10515227E-3
MEAN_MOTION_DOT = .298E-5
MEAN_MOTION_DDOT = 0

CCSDS_OMM_VERS = 2.0
CREATION_DATE  = 
ORIGINATOR     = 

OBJECT_NAME    = COSMOS 1975
OBJECT_ID      = 1988-093A
CENTER_NAME    = EARTH
REF_FRAME      = TEME
TIME_SYSTEM    = UTC
MEAN_ELEMENT_THEORY = SGP/SGP4

EPOCH          = 2026-03-12T03:32:41.119296
MEAN_MOTION    = 15.28107769
ECCENTRICITY   = .00124008
INCLINATION    = 82.5182
RA_OF_ASC_NODE = 115.2177
ARG_OF_PERICENTER = 155.1171
MEAN_ANOMALY   = 205.0669

EPHEMERIS_TYPE = 0
CLASSIFICATION_TYPE = U
NORAD_CAT_ID   = 19573
ELEMENT_SET_NO = 999
REV_AT_EPOCH   = 1978
BSTAR          = .25058788E-3
MEAN_MOTION_DOT = .6913E-4
MEAN_MOTION_DDOT = 0

CCSDS_OMM_VERS = 2.0
CREATION_DATE  = 
ORIGINATOR     = 

OBJECT_NAME    = SL-14 R/B
OBJECT_ID      = 1988-093B
CENTER_NAME    = EARTH
REF_FRAME      = TEME
TIME_SYSTEM    = UTC
MEAN_ELEMENT_THEORY = SGP/SGP4

EPOCH          = 2026-03-12T07:11:01.316256
MEAN_MOTION    = 14.85660399
ECCENTRICITY   = .00215814
INCLINATION    = 82.5310
RA_OF_ASC_NODE = 39.5938
ARG_OF_PERICENTER = 33.2673
MEAN_ANOMALY   = 83.1539

EPHEMERIS_TYPE = 0
CLASSIFICATION_TYPE = U
NORAD_CAT_ID   = 19574
ELEMENT_SET_NO = 999
REV_AT_EPOCH   = 140
BSTAR          = .83358517E-4
MEAN_MOTION_DOT = .749E-5
MEAN_MOTION_DDOT = 0

CCSDS_OMM_VERS = 2.0
CREATION_DATE  = 
ORIGINATOR     = 

OBJECT_NAME    = SL-16 R/B
OBJECT_ID      = 1988-102B
CENTER_NAME    = EARTH
REF_FRAME      = TEME
TIME_SYSTEM    = UTC
MEAN_ELEMENT_THEORY = SGP/SGP4

EPOCH          = 2026-03-12T07:21:22.955616
MEAN_MOTION    = 14.16153853
ECCENTRICITY   = .00141374
INCLINATION    = 70.9999
RA_OF_ASC_NODE = 145.9917
ARG_OF_PERICENTER = 357.5135
MEAN_ANOMALY   = 2.5915

EPHEMERIS_TYPE = 0
CLASSIFICATION_TYPE = U
NORAD_CAT_ID   = 19650
ELEMENT_SET_NO = 999
REV_AT_EPOCH   = 92726
BSTAR          = .16673374E-3
MEAN_MOTION_DOT = .282E-5
MEAN_MOTION_DDOT = 0

CCSDS_OMM_VERS = 2.0
CREATION_DATE  = 
ORIGINATOR     = 

OBJECT_NAME    = INTERCOSMOS 24
OBJECT_ID      = 1989-080A
CENTER_NAME    = EARTH
REF_FRAME      = TEME
TIME_SYSTEM    = UTC
MEAN_ELEMENT_THEORY = SGP/SGP4

EPOCH          = 2026-03-12T02:32:38.266944
MEAN_MOTION    = 12.59561642
ECCENTRICITY   = .11866805
INCLINATION    = 82.6022
RA_OF_ASC_NODE = 102.8305
ARG_OF_PERICENTER = 287.2065
MEAN_ANOMALY   = 60.2687

EPHEMERIS_TYPE = 0
CLASSIFICATION_TYPE = U
NORAD_CAT_ID   = 20261
ELEMENT_SET_NO = 999
REV_AT_EPOCH   = 66710
BSTAR          = .22805505E-3
MEAN_MOTION_DOT = .766E-5
MEAN_MOTION_DDOT = 0

CCSDS_OMM_VERS = 2.0
CREATION_DATE  = 
ORIGINATOR     = 

OBJECT_NAME    = SL-14 R/B
OBJECT_ID      = 1989-080C
CENTER_NAME    = EARTH
REF_FRAME      = TEME
TIME_SYSTEM    = UTC
MEAN_ELEMENT_THEORY = SGP/SGP4

EPOCH          = 2026-03-12T06:38:10.155552
MEAN_MOTION    = 12.50497375
ECCENTRICITY   = .12306485
INCLINATION    = 82.5974
RA_OF_ASC_NODE = 171.5263
ARG_OF_PERICENTER = 178.8389
MEAN_ANOMALY   = 181.6078

EPHEMERIS_TYPE = 0
CLASSIFICATION_TYPE = U
NORAD_CAT_ID   = 20262
ELEMENT_SET_NO = 999
REV_AT_EPOCH   = 66047
BSTAR          = .19364137E-3
MEAN_MOTION_DOT = .66E-5
MEAN_MOTION_DDOT = 0

CCSDS_OMM_VERS = 2.0
CREATION_DATE  = 
ORIGINATOR     = 

OBJECT_NAME    = DELTA 1 R/B
OBJECT_ID      = 1989-089B
CENTER_NAME    = EARTH
REF_FRAME      = TEME
TIME_SYSTEM    = UTC
MEAN_ELEMENT_THEORY = SGP/SGP4

EPOCH          = 2026-03-12T04:09:02.644128
MEAN_MOTION    = 14.50665274
ECCENTRICITY   = .00705687
INCLINATION    = 97.0704
RA_OF_ASC_NODE = 278.2168
ARG_OF_PERICENTER = 114.2803
MEAN_ANOMALY   = 246.5788

EPHEMERIS_TYPE = 0
CLASSIFICATION_TYPE = U
NORAD_CAT_ID   = 20323
ELEMENT_SET_NO = 999
REV_AT_EPOCH   = 89609
BSTAR          = .10964983E-3
MEAN_MOTION_DOT = .41E-5
MEAN_MOTION_DDOT = 0

CCSDS_OMM_VERS = 2.0
CREATION_DATE  = 
ORIGINATOR     = 

OBJECT_NAME    = ARIANE 40 R/B
OBJECT_ID      = 1990-005H
CENTER_NAME    = EARTH
REF_FRAME      = TEME
TIME_SYSTEM    = UTC
MEAN_ELEMENT_THEORY = SGP/SGP4

EPOCH          = 2026-03-12T04:13:46.025760
MEAN_MOTION    = 14.39872407
ECCENTRICITY   = .00100059
INCLINATION    = 98.3078
RA_OF_ASC_NODE = 131.7635
ARG_OF_PERICENTER = 190.9929
MEAN_ANOMALY   = 169.1042

EPHEMERIS_TYPE = 0
CLASSIFICATION_TYPE = U
NORAD_CAT_ID   = 20443
ELEMENT_SET_NO = 999
REV_AT_EPOCH   = 89316
BSTAR          = .11667445E-3
MEAN_MOTION_DOT = .324E-5
MEAN_MOTION_DDOT = 0

CCSDS_OMM_VERS = 2.0
CREATION_DATE  = 
ORIGINATOR     = 

OBJECT_NAME    = DELTA 2 R/B(1)
OBJECT_ID      = 1990-008B
CENTER_NAME    = EARTH
REF_FRAME      = TEME
TIME_SYSTEM    = UTC
MEAN_ELEMENT_THEORY = SGP/SGP4

EPOCH          = 2026-03-12T07:49:01.202304
MEAN_MOTION    = 15.56355952
ECCENTRICITY   = .00845775
INCLINATION    = 35.6034
RA_OF_ASC_NODE = 157.5488
ARG_OF_PERICENTER = 283.0537
MEAN_ANOMALY   = 76.0768

EPHEMERIS_TYPE = 0
CLASSIFICATION_TYPE = U
NORAD_CAT_ID   = 20453
ELEMENT_SET_NO = 999
REV_AT_EPOCH   = 92654
BSTAR          = .73191889E-3
MEAN_MOTION_DOT = .63321E-3
MEAN_MOTION_DDOT = 0

